[
    {
        "Altitude(m)": 617710.6650485676,
        "Argument of Periapsis(deg)": 0.0,
        "Eccentricity": 0.0,
        "Inclination(deg)": 60.0,
        "Latitude(deg)": -41.10272887142297,
        "Longitude(deg)": -175.03343119806104,
        "Mean Anomaly(deg)": -49.09089999999989,
        "RAAN(deg)": 315.0,
        "Satellite Name": "Test1 1405",
        "Satellite Number": 1405,
        "Semi-Major Axis(m)": 6980739.136638005,
        "Time(s)": 0
    },
    {
        "Altitude(m)": 617517.9637059572,
        "Argument of Periapsis(deg)": 0.00010418945913296404,
        "Eccentricity": 0.0,
        "Inclination(deg)": 60.0,
        "Latitude(deg)": -40.63693644278248,
        "Longitude(deg)": -174.53663608329498,
        "Mean Anomaly(deg)": -48.47079385453804,
        "RAAN(deg)": 314.99957995086027,
        "Satellite Name": "Test1 1405",
        "Satellite Number": 1405,
        "Semi-Major Axis(m)": 6980739.136638005,
        "Time(s)": 10
    }
]